[{"OBJECT_NAME":"AETHER-2","OBJECT_ID":"2023-174AV","EPOCH":"2026-03-09T17:13:49.792224","MEAN_MOTION":15.33264165,"ECCENTRICITY":0.00086301,"INCLINATION":97.3931,"RA_OF_ASC_NODE":151.9008,"ARG_OF_PERICENTER":139.5247,"MEAN_ANOMALY":220.6639,"EPHEMERIS_TYPE":0,"CLASSIFICATION_TYPE":"U","NORAD_CAT_ID":58299,"ELEMENT_SET_NO":999,"REV_AT_EPOCH":12998,"BSTAR":0.00026165949,"MEAN_MOTION_DOT":8.341e-5,"MEAN_MOTION_DDOT":0},{"OBJECT_NAME":"STARLINK-34108","OBJECT_ID":"2025-223U","EPOCH":"2026-03-09T22:08:28.714848","MEAN_MOTION":15.30221142,"ECCENTRICITY":9.661e-5,"INCLINATION":53.1595,"RA_OF_ASC_NODE":292.9263,"ARG_OF_PERICENTER":152.1665,"MEAN_ANOMALY":207.9388,"EPHEMERIS_TYPE":0,"CLASSIFICATION_TYPE":"U","NORAD_CAT_ID":65872,"ELEMENT_SET_NO":999,"REV_AT_EPOCH":2424,"BSTAR":0.00098223845,"MEAN_MOTION_DOT":0.00028864,"MEAN_MOTION_DDOT":0}]
